RSP-03                  
1 65732U 98067XL  26045.55995740  .02548887  11872-4  12684-2 0  9992
2 65732  51.6104 164.2588 0009517 331.4445  28.6050 16.20001057 23279
YOTSUBA-KULOVER         
1 65941U 98067XN  26045.24480233  .00148508  00000+0  10774-2 0  9994
2 65941  51.6246 178.0885 0004449 299.8232  60.2324 15.72411013 19804
BOTAN                   
1 65942U 98067XP  26045.25685187  .00463784  00000+0  15238-2 0  9997
2 65942  51.6157 173.6046 0007973 322.9275  37.1178 15.88758377 19866
E-KAGAKU-1              
1 65943U 98067XQ  26044.61038670  .00127268  00000+0  93828-3 0  9992
2 65943  51.6267 181.3641 0004184 310.1577  49.9054 15.72107679 19704
HRC MONOBLOCK CAMERA    
1 66052U 98067XR  26045.58825786  .00041188  00000+0  50768-3 0  9995
2 66052  51.6272 181.8982 0001762   9.3579 350.7447 15.59775390 18785
HTV-X1                  
1 66174U 25241A   26045.21445063  .00008429  00000+0  16304-3 0  9999
2 66174  51.6315 188.3997 0011062  96.9141 263.3106 15.48593530   512
SZ-21 MODULE            
1 66515U 25246C   26045.18294127  .00036199  00000+0  33554-3 0  9993
2 66515  41.4766 347.8589 0002276 294.3248  65.7355 15.66742900 14383
SHENZHOU-22             
1 66645U 25272A   26045.22255719  .00017014  00000+0  21136-3 0  9993
2 66645  41.4681 350.8379 0004138  88.4317 271.6995 15.59592517267648
SOYUZ-MS 28             
1 66664U 25275A   26045.53711076  .00007669  00000+0  14907-3 0  9997
2 66664  51.6315 186.8042 0011057  98.0666 262.1577 15.48597515552742
DUPLEX                  
1 66906U 98067XS  26045.58469308  .00028442  00000+0  42811-3 0  9995
2 66906  51.6286 184.8744 0001358  75.5760 284.5381 15.54589478 11537
ISS OBJECT XT           
1 66907U 98067XT  26045.60689530  .00092923  00000+0  99972-3 0  9995
2 66907  51.6270 182.7704 0002176 303.9865  56.0922 15.62956456 11566
ISS OBJECT XU           
1 66908U 98067XU  26045.54225788  .00090853  00000+0  97716-3 0  9994
2 66908  51.6259 183.0859 0002043 308.2832  51.7978 15.62974029 11552
